[{"OBJECT_NAME":"RCM-2","OBJECT_ID":"2019-033C","EPOCH":"2026-03-08T22:56:29.499936","MEAN_MOTION":14.92592108,"ECCENTRICITY":0.00014964,"INCLINATION":97.7601,"RA_OF_ASC_NODE":76.8663,"ARG_OF_PERICENTER":90.1221,"MEAN_ANOMALY":270.017,"EPHEMERIS_TYPE":0,"CLASSIFICATION_TYPE":"U","NORAD_CAT_ID":44324,"ELEMENT_SET_NO":999,"REV_AT_EPOCH":36713,"BSTAR":0.000141329,"MEAN_MOTION_DOT":1.398e-5,"MEAN_MOTION_DDOT":0},{"OBJECT_NAME":"NOAA 16 DEB","OBJECT_ID":"2000-055FT","EPOCH":"2026-03-09T11:21:21.418848","MEAN_MOTION":14.95188517,"ECCENTRICITY":0.00213748,"INCLINATION":98.8051,"RA_OF_ASC_NODE":256.9705,"ARG_OF_PERICENTER":245.6688,"MEAN_ANOMALY":114.2298,"EPHEMERIS_TYPE":0,"CLASSIFICATION_TYPE":"U","NORAD_CAT_ID":41267,"ELEMENT_SET_NO":999,"REV_AT_EPOCH":53609,"BSTAR":0.0049990459,"MEAN_MOTION_DOT":0.00055514,"MEAN_MOTION_DDOT":0}]
